[
    {
        "Altitude(m)": 566587.70425588,
        "Argument of Periapsis(deg)": 0.006622991110713501,
        "Eccentricity": 0.0,
        "Inclination(deg)": 53.0,
        "Latitude(deg)": -40.16470843574365,
        "Longitude(deg)": 124.98971477132766,
        "Mean Anomaly(deg)": -53.54470713242239,
        "RAAN(deg)": 264.990143368528,
        "Satellite Name": "Starlink Shell 1 1184",
        "Satellite Number": 1184,
        "Semi-Major Axis(m)": 6931778.249405717,
        "Time(s)": 190
    },
    {
        "Altitude(m)": 566426.8534331016,
        "Argument of Periapsis(deg)": 0.0069715695902247375,
        "Eccentricity": 0.0,
        "Inclination(deg)": 53.0,
        "Latitude(deg)": -39.77522069835949,
        "Longitude(deg)": 125.58618667450271,
        "Mean Anomaly(deg)": -52.917875928865655,
        "RAAN(deg)": 264.9896245984506,
        "Satellite Name": "Starlink Shell 1 1184",
        "Satellite Number": 1184,
        "Semi-Major Axis(m)": 6931778.249405717,
        "Time(s)": 200
    },
    {
        "Altitude(m)": 566264.6592505274,
        "Argument of Periapsis(deg)": 0.007320148069735974,
        "Eccentricity": 0.0,
        "Inclination(deg)": 53.0,
        "Latitude(deg)": -39.38223247252011,
        "Longitude(deg)": 126.17549933454946,
        "Mean Anomaly(deg)": -52.29104472530899,
        "RAAN(deg)": 264.9891058283731,
        "Satellite Name": "Starlink Shell 1 1184",
        "Satellite Number": 1184,
        "Semi-Major Axis(m)": 6931778.249405717,
        "Time(s)": 210
    },
    {
        "Altitude(m)": 566101.1847683022,
        "Argument of Periapsis(deg)": 0.007668726549247212,
        "Eccentricity": 0.0,
        "Inclination(deg)": 53.0,
        "Latitude(deg)": -38.98582901272837,
        "Longitude(deg)": 126.7577698518054,
        "Mean Anomaly(deg)": -51.6642135217523,
        "RAAN(deg)": 264.9885870582956,
        "Satellite Name": "Starlink Shell 1 1184",
        "Satellite Number": 1184,
        "Semi-Major Axis(m)": 6931778.249405717,
        "Time(s)": 220
    },
    {
        "Altitude(m)": 565936.4934718355,
        "Argument of Periapsis(deg)": 0.00801730502875845,
        "Eccentricity": 0.0,
        "Inclination(deg)": 53.0,
        "Latitude(deg)": -38.58609378624422,
        "Longitude(deg)": 127.33311609355682,
        "Mean Anomaly(deg)": -51.037382318195476,
        "RAAN(deg)": 264.98806828821813,
        "Satellite Name": "Starlink Shell 1 1184",
        "Satellite Number": 1184,
        "Semi-Major Axis(m)": 6931778.249405717,
        "Time(s)": 230
    },
    {
        "Altitude(m)": 565770.649243604,
        "Argument of Periapsis(deg)": 0.008365883508269684,
        "Eccentricity": 0.0,
        "Inclination(deg)": 53.0,
        "Latitude(deg)": -38.183108490911906,
        "Longitude(deg)": 127.90165699429431,
        "Mean Anomaly(deg)": -50.41055111463881,
        "RAAN(deg)": 264.98754951814067,
        "Satellite Name": "Starlink Shell 1 1184",
        "Satellite Number": 1184,
        "Semi-Major Axis(m)": 6931778.249405717,
        "Time(s)": 240
    },
    {
        "Altitude(m)": 565603.7163347866,
        "Argument of Periapsis(deg)": 0.008714461987780921,
        "Eccentricity": 0.0,
        "Inclination(deg)": 53.0,
        "Latitude(deg)": -37.77695307523314,
        "Longitude(deg)": 128.46351135749785,
        "Mean Anomaly(deg)": -49.78371991108214,
        "RAAN(deg)": 264.9870307480632,
        "Satellite Name": "Starlink Shell 1 1184",
        "Satellite Number": 1184,
        "Semi-Major Axis(m)": 6931778.249405717,
        "Time(s)": 250
    },
    {
        "Altitude(m)": 565435.7593367172,
        "Argument of Periapsis(deg)": 0.009063040467292158,
        "Eccentricity": 0.0,
        "Inclination(deg)": 53.0,
        "Latitude(deg)": -37.367705760450534,
        "Longitude(deg)": 129.01879818410055,
        "Mean Anomaly(deg)": -49.15688870752541,
        "RAAN(deg)": 264.98651197798574,
        "Satellite Name": "Starlink Shell 1 1184",
        "Satellite Number": 1184,
        "Semi-Major Axis(m)": 6931778.249405717,
        "Time(s)": 260
    },
    {
        "Altitude(m)": 565266.8431521275,
        "Argument of Periapsis(deg)": 0.009411618946803396,
        "Eccentricity": 0.0,
        "Inclination(deg)": 53.0,
        "Latitude(deg)": -36.955443064411845,
        "Longitude(deg)": 129.5676370141656,
        "Mean Anomaly(deg)": -48.530057503968614,
        "RAAN(deg)": 264.9859932079082,
        "Satellite Name": "Starlink Shell 1 1184",
        "Satellite Number": 1184,
        "Semi-Major Axis(m)": 6931778.249405717,
        "Time(s)": 270
    },
    {
        "Altitude(m)": 565097.0329663126,
        "Argument of Periapsis(deg)": 0.009760197426314633,
        "Eccentricity": 0.0,
        "Inclination(deg)": 53.0,
        "Latitude(deg)": -36.54023982700313,
        "Longitude(deg)": 130.11014676830396,
        "Mean Anomaly(deg)": -47.903226300411944,
        "RAAN(deg)": 264.98547443783076,
        "Satellite Name": "Starlink Shell 1 1184",
        "Satellite Number": 1184,
        "Semi-Major Axis(m)": 6931778.249405717,
        "Time(s)": 280
    },
    {
        "Altitude(m)": 564926.3942180731,
        "Argument of Periapsis(deg)": 0.01010877590582587,
        "Eccentricity": 0.0,
        "Inclination(deg)": 53.0,
        "Latitude(deg)": -36.12216923695572,
        "Longitude(deg)": 130.64644611397716,
        "Mean Anomaly(deg)": -47.276395096855225,
        "RAAN(deg)": 264.9849556677533,
        "Satellite Name": "Starlink Shell 1 1184",
        "Satellite Number": 1184,
        "Semi-Major Axis(m)": 6931778.249405717,
        "Time(s)": 290
    },
    {
        "Altitude(m)": 564754.992570574,
        "Argument of Periapsis(deg)": 0.010457354385337106,
        "Eccentricity": 0.0,
        "Inclination(deg)": 53.0,
        "Latitude(deg)": -35.7013028598434,
        "Longitude(deg)": 131.17665384321887,
        "Mean Anomaly(deg)": -46.649563893298556,
        "RAAN(deg)": 264.98443689767583,
        "Satellite Name": "Starlink Shell 1 1184",
        "Satellite Number": 1184,
        "Semi-Major Axis(m)": 6931778.249405717,
        "Time(s)": 300
    },
    {
        "Altitude(m)": 564582.8938820785,
        "Argument of Periapsis(deg)": 0.010805932864848343,
        "Eccentricity": 0.0,
        "Inclination(deg)": 53.0,
        "Latitude(deg)": -35.27771066709587,
        "Longitude(deg)": 131.7008877483211,
        "Mean Anomaly(deg)": -46.02273268974178,
        "RAAN(deg)": 264.9839181275983,
        "Satellite Name": "Starlink Shell 1 1184",
        "Satellite Number": 1184,
        "Semi-Major Axis(m)": 6931778.249405717,
        "Time(s)": 310
    },
    {
        "Altitude(m)": 564410.1641765777,
        "Argument of Periapsis(deg)": 0.01115451134435958,
        "Eccentricity": 0.0,
        "Inclination(deg)": 53.0,
        "Latitude(deg)": -34.85146106587589,
        "Longitude(deg)": 132.2192650206501,
        "Mean Anomaly(deg)": -45.39590148618514,
        "RAAN(deg)": 264.98339935752085,
        "Satellite Name": "Starlink Shell 1 1184",
        "Satellite Number": 1184,
        "Semi-Major Axis(m)": 6931778.249405717,
        "Time(s)": 320
    },
    {
        "Altitude(m)": 564236.8696143372,
        "Argument of Periapsis(deg)": 0.011503089823870818,
        "Eccentricity": 0.0,
        "Inclination(deg)": 53.0,
        "Latitude(deg)": -34.422620929670735,
        "Longitude(deg)": 132.73190265916233,
        "Mean Anomaly(deg)": -44.76907028262836,
        "RAAN(deg)": 264.98288058744345,
        "Satellite Name": "Starlink Shell 1 1184",
        "Satellite Number": 1184,
        "Semi-Major Axis(m)": 6931778.249405717,
        "Time(s)": 330
    },
    {
        "Altitude(m)": 564063.0764623404,
        "Argument of Periapsis(deg)": 0.011851668303382053,
        "Eccentricity": 0.0,
        "Inclination(deg)": 53.0,
        "Latitude(deg)": -33.99125562946454,
        "Longitude(deg)": 133.2389163751992,
        "Mean Anomaly(deg)": -44.142239079071594,
        "RAAN(deg)": 264.9823618173659,
        "Satellite Name": "Starlink Shell 1 1184",
        "Satellite Number": 1184,
        "Semi-Major Axis(m)": 6931778.249405717,
        "Time(s)": 340
    },
    {
        "Altitude(m)": 563888.8510647125,
        "Argument of Periapsis(deg)": 0.012200246782893292,
        "Eccentricity": 0.0,
        "Inclination(deg)": 53.0,
        "Latitude(deg)": -33.55742906536904,
        "Longitude(deg)": 133.74042101877646,
        "Mean Anomaly(deg)": -43.515407875514974,
        "RAAN(deg)": 264.98184304728846,
        "Satellite Name": "Starlink Shell 1 1184",
        "Satellite Number": 1184,
        "Semi-Major Axis(m)": 6931778.249405717,
        "Time(s)": 350
    },
    {
        "Altitude(m)": 563714.2598130598,
        "Argument of Periapsis(deg)": 0.012548825262404526,
        "Eccentricity": 0.0,
        "Inclination(deg)": 53.0,
        "Latitude(deg)": -33.121203698599345,
        "Longitude(deg)": 134.2365310129832,
        "Mean Anomaly(deg)": -42.888576671958305,
        "RAAN(deg)": 264.981324277211,
        "Satellite Name": "Starlink Shell 1 1184",
        "Satellite Number": 1184,
        "Semi-Major Axis(m)": 6931778.249405717,
        "Time(s)": 360
    },
    {
        "Altitude(m)": 563539.3691168021,
        "Argument of Periapsis(deg)": 0.012897403741915765,
        "Eccentricity": 0.0,
        "Inclination(deg)": 53.0,
        "Latitude(deg)": -32.682640583690066,
        "Longitude(deg)": 134.72735928312323,
        "Mean Anomaly(deg)": -42.26174546840151,
        "RAAN(deg)": 264.9808055071335,
        "Satellite Name": "Starlink Shell 1 1184",
        "Satellite Number": 1184,
        "Semi-Major Axis(m)": 6931778.249405717,
        "Time(s)": 370
    }
]